STARLINK-31604          
1 59214U 24046P   26068.51560525  .00001291  00000+0  55738-4 0  9992
2 59214  53.1588 156.0884 0001094  82.9658 277.1468 15.30187545113017
BLUEBON                 
1 62688U 25009CH  26068.70316231  .00010452  00000+0  37313-3 0  9992
2 62688  97.4017 152.2033 0001193  43.3900 316.7434 15.29047253 63767
